{
    "links": {
        "self": "http://www.neowsapp.com/rest/v1/neo/3583428?api_key=iIulBulltgU6a56xZRHN4H3l9WmuAYTsLGpBGhQ2"
    },
    "id": "3583428",
    "neo_reference_id": "3583428",
    "name": "(2011 UL147)",
    "designation": "2011 UL147",
    "nasa_jpl_url": "http://ssd.jpl.nasa.gov/sbdb.cgi?sstr=3583428",
    "absolute_magnitude_h": 21.9,
    "estimated_diameter": {
        "kilometers": {
            "estimated_diameter_min": 0.1108038821,
            "estimated_diameter_max": 0.2477650126
        },
        "meters": {
            "estimated_diameter_min": 110.8038821264,
            "estimated_diameter_max": 247.7650126055
        },
        "miles": {
            "estimated_diameter_min": 0.068850319,
            "estimated_diameter_max": 0.1539539936
        },
        "feet": {
            "estimated_diameter_min": 363.5298086356,
            "estimated_diameter_max": 812.8773639568
        }
    },
    "is_potentially_hazardous_asteroid": false,
    "close_approach_data": [
        {
            "close_approach_date": "2011-11-26",
            "close_approach_date_full": "2011-Nov-26 02:30",
            "epoch_date_close_approach": 1322274600000,
            "relative_velocity": {
                "kilometers_per_second": "3.7291143677",
                "kilometers_per_hour": "13424.8117235931",
                "miles_per_hour": "8341.6559290293"
            },
            "miss_distance": {
                "astronomical": "0.25929945",
                "lunar": "100.86748605",
                "kilometers": "38790645.4121715",
                "miles": "24103389.3701067"
            },
            "orbiting_body": "Earth"
        },
        {
            "close_approach_date": "2018-12-11",
            "close_approach_date_full": "2018-Dec-11 19:19",
            "epoch_date_close_approach": 1544555940000,
            "relative_velocity": {
                "kilometers_per_second": "4.1265258768",
                "kilometers_per_hour": "14855.4931565599",
                "miles_per_hour": "9230.6257338636"
            },
            "miss_distance": {
                "astronomical": "0.3413498225",
                "lunar": "132.7850809525",
                "kilometers": "51065206.370878075",
                "miles": "31730447.878444435"
            },
            "orbiting_body": "Earth"
        }
    ],
    "orbital_data": {
        "orbit_id": "13",
        "orbit_determination_date": "2017-04-06 08:52:13",
        "first_observation_date": "2011-10-24",
        "last_observation_date": "2011-12-23",
        "data_arc_in_days": 60,
        "observations_used": 45,
        "orbit_uncertainty": "5",
        "minimum_orbit_intersection": ".225154",
        "jupiter_tisserand_invariant": "3.437",
        "epoch_osculation": "2459000.5",
        "eccentricity": ".4722937495356772",
        "semi_major_axis": "2.291254709170513",
        "inclination": "4.663513071444525",
        "ascending_node_longitude": "231.8152674080488",
        "orbital_period": "1266.801248504637",
        "perihelion_distance": "1.209109431435094",
        "perihelion_argument": "199.07638337349",
        "aphelion_distance": "3.373399986905932",
        "perihelion_time": "2458441.026792100950",
        "mean_anomaly": "158.9912822405312",
        "mean_motion": ".2841803324909514",
        "equinox": "J2000",
        "orbit_class": {
            "orbit_class_type": "AMO",
            "orbit_class_description": "Near-Earth asteroid orbits similar to that of 1221 Amor",
            "orbit_class_range": "1.017 AU < q (perihelion) < 1.3 AU"
        }
    },
    "is_sentry_object": false
}